{
  "type": "FeatureCollection",
  "features": [
    {
      "type": "Feature",
      "properties": {
        "norad_id": 43564,
        "name": "GSAT0221 (GALILEO 25)",
        "group": "galileo",
        "lat": -0.21155202952643218,
        "lon": -13.718810623751788,
        "alt_km": 23216.486254834286,
        "timestamp": "2025-12-27T04:40:45.768836+00:00",
        "meta_object_name": "GSAT0221 (GALILEO 25)",
        "meta_object_id": "2018-060A",
        "meta_epoch": "2025-12-24T06:17:56.044608",
        "meta_mean_motion": 1.70475708,
        "meta_eccentricity": 0.00067277,
        "meta_inclination": 57.2252,
        "meta_ra_of_asc_node": 346.5066,
        "meta_arg_of_pericenter": 286.73,
        "meta_mean_anomaly": 73.2039,
        "meta_ephemeris_type": 0,
        "meta_classification_type": "U",
        "meta_norad_cat_id": 43564,
        "meta_element_set_no": 999,
        "meta_rev_at_epoch": 4618,
        "meta_bstar": 0,
        "meta_mean_motion_dot": -6.1e-07,
        "meta_mean_motion_ddot": 0,
        "tle_line1": "1 43564U 18060A   25358.26245422 -.00000061  00000+0  00000+0 0  9993",
        "tle_line2": "2 43564  57.2252 346.5066 0006727 286.7300  73.2039  1.70475708 46187"
      },
      "geometry": {
        "type": "Point",
        "coordinates": [
          -13.718810623751788,
          -0.21155202952643218
        ]
      }
    },
    {
      "type": "Feature",
      "properties": {
        "norad_id": 43565,
        "name": "GSAT0222 (GALILEO 26)",
        "group": "galileo",
        "lat": -36.5090343505055,
        "lon": -165.10503191823537,
        "alt_km": 23213.45339725298,
        "timestamp": "2025-12-27T04:40:45.768847+00:00",
        "meta_object_name": "GSAT0222 (GALILEO 26)",
        "meta_object_id": "2018-060B",
        "meta_epoch": "2025-12-26T05:47:51.912384",
        "meta_mean_motion": 1.7047535,
        "meta_eccentricity": 0.0006025,
        "meta_inclination": 57.2282,
        "meta_ra_of_asc_node": 346.4561,
        "meta_arg_of_pericenter": 267.9285,
        "meta_mean_anomaly": 92.0117,
        "meta_ephemeris_type": 0,
        "meta_classification_type": "U",
        "meta_norad_cat_id": 43565,
        "meta_element_set_no": 999,
        "meta_rev_at_epoch": 4626,
        "meta_bstar": 0,
        "meta_mean_motion_dot": -6e-07,
        "meta_mean_motion_ddot": 0,
        "tle_line1": "1 43565U 18060B   25360.24157306 -.00000060  00000+0  00000+0 0  9997",
        "tle_line2": "2 43565  57.2282 346.4561 0006025 267.9285  92.0117  1.70475350 46262"
      },
      "geometry": {
        "type": "Point",
        "coordinates": [
          -165.10503191823537,
          -36.5090343505055
        ]
      }
    },
    {
      "type": "Feature",
      "properties": {
        "norad_id": 43566,
        "name": "GSAT0219 (GALILEO 23)",
        "group": "galileo",
        "lat": 57.20847788772024,
        "lon": 75.30925971663507,
        "alt_km": 23231.65680984551,
        "timestamp": "2025-12-27T04:40:45.768872+00:00",
        "meta_object_name": "GSAT0219 (GALILEO 23)",
        "meta_object_id": "2018-060C",
        "meta_epoch": "2025-12-26T11:06:17.532288",
        "meta_mean_motion": 1.70475524,
        "meta_eccentricity": 0.00059076,
        "meta_inclination": 57.2273,
        "meta_ra_of_asc_node": 346.4517,
        "meta_arg_of_pericenter": 292.2386,
        "meta_mean_anomaly": 67.708,
        "meta_ephemeris_type": 0,
        "meta_classification_type": "U",
        "meta_norad_cat_id": 43566,
        "meta_element_set_no": 999,
        "meta_rev_at_epoch": 4624,
        "meta_bstar": 0,
        "meta_mean_motion_dot": -6e-07,
        "meta_mean_motion_ddot": 0,
        "tle_line1": "1 43566U 18060C   25360.46270292 -.00000060  00000+0  00000+0 0  9992",
        "tle_line2": "2 43566  57.2273 346.4517 0005907 292.2386  67.7080  1.70475524 46244"
      },
      "geometry": {
        "type": "Point",
        "coordinates": [
          75.30925971663507,
          57.20847788772024
        ]
      }
    },
    {
      "type": "Feature",
      "properties": {
        "norad_id": 43567,
        "name": "GSAT0220 (GALILEO 24)",
        "group": "galileo",
        "lat": -37.35860354937486,
        "lon": -43.03215633376742,
        "alt_km": 23210.173192348328,
        "timestamp": "2025-12-27T04:40:45.768885+00:00",
        "meta_object_name": "GSAT0220 (GALILEO 24)",
        "meta_object_id": "2018-060D",
        "meta_epoch": "2025-12-23T03:56:18.956256",
        "meta_mean_motion": 1.70475727,
        "meta_eccentricity": 0.00061193,
        "meta_inclination": 57.2279,
        "meta_ra_of_asc_node": 346.5416,
        "meta_arg_of_pericenter": 288.3355,
        "meta_mean_anomaly": 71.6054,
        "meta_ephemeris_type": 0,
        "meta_classification_type": "U",
        "meta_norad_cat_id": 43567,
        "meta_element_set_no": 999,
        "meta_rev_at_epoch": 4617,
        "meta_bstar": 0,
        "meta_mean_motion_dot": -6.3e-07,
        "meta_mean_motion_ddot": 0,
        "tle_line1": "1 43567U 18060D   25357.16410829 -.00000063  00000+0  00000+0 0  9991",
        "tle_line2": "2 43567  57.2279 346.5416 0006119 288.3355  71.6054  1.70475727 46170"
      },
      "geometry": {
        "type": "Point",
        "coordinates": [
          -43.03215633376742,
          -37.35860354937486
        ]
      }
    },
    {
      "type": "Feature",
      "properties": {
        "norad_id": 49809,
        "name": "GSAT0223 (GALILEO 27)",
        "group": "galileo",
        "lat": 36.137504492115944,
        "lon": 14.382989940474417,
        "alt_km": 23228.76515807973,
        "timestamp": "2025-12-27T04:40:45.768897+00:00",
        "meta_object_name": "GSAT0223 (GALILEO 27)",
        "meta_object_id": "2021-116A",
        "meta_epoch": "2025-12-22T17:26:14.878176",
        "meta_mean_motion": 1.70475871,
        "meta_eccentricity": 0.000441,
        "meta_inclination": 57.2174,
        "meta_ra_of_asc_node": 346.4438,
        "meta_arg_of_pericenter": 255.815,
        "meta_mean_anomaly": 286.3499,
        "meta_ephemeris_type": 0,
        "meta_classification_type": "U",
        "meta_norad_cat_id": 49809,
        "meta_element_set_no": 999,
        "meta_rev_at_epoch": 2517,
        "meta_bstar": 0,
        "meta_mean_motion_dot": -6.4e-07,
        "meta_mean_motion_ddot": 0,
        "tle_line1": "1 49809U 21116A   25356.72656109 -.00000064  00000+0  00000+0 0  9997",
        "tle_line2": "2 49809  57.2174 346.4438 0004410 255.8150 286.3499  1.70475871 25171"
      },
      "geometry": {
        "type": "Point",
        "coordinates": [
          14.382989940474417,
          36.137504492115944
        ]
      }
    },
    {
      "type": "Feature",
      "properties": {
        "norad_id": 49810,
        "name": "GSAT0224 (GALILEO 28)",
        "group": "galileo",
        "lat": 19.077277002714055,
        "lon": 153.43544198907,
        "alt_km": 23222.409638699984,
        "timestamp": "2025-12-27T04:40:45.768909+00:00",
        "meta_object_name": "GSAT0224 (GALILEO 28)",
        "meta_object_id": "2021-116B",
        "meta_epoch": "2025-12-23T03:00:59.528736",
        "meta_mean_motion": 1.70475912,
        "meta_eccentricity": 0.00037519,
        "meta_inclination": 57.2181,
        "meta_ra_of_asc_node": 346.4317,
        "meta_arg_of_pericenter": 260.8078,
        "meta_mean_anomaly": 278.9053,
        "meta_ephemeris_type": 0,
        "meta_classification_type": "U",
        "meta_norad_cat_id": 49810,
        "meta_element_set_no": 999,
        "meta_rev_at_epoch": 2520,
        "meta_bstar": 0,
        "meta_mean_motion_dot": -6.3e-07,
        "meta_mean_motion_ddot": 0,
        "tle_line1": "1 49810U 21116B   25357.12568899 -.00000063  00000+0  00000+0 0  9991",
        "tle_line2": "2 49810  57.2181 346.4317 0003751 260.8078 278.9053  1.70475912 25202"
      },
      "geometry": {
        "type": "Point",
        "coordinates": [
          153.43544198907,
          19.077277002714055
        ]
      }
    },
    {
      "type": "Feature",
      "properties": {
        "norad_id": 59598,
        "name": "GSAT0225 (GALILEO 29)",
        "group": "galileo",
        "lat": 24.420341027784712,
        "lon": -92.62733605777821,
        "alt_km": 23214.315884567848,
        "timestamp": "2025-12-27T04:40:45.768921+00:00",
        "meta_object_name": "GSAT0225 (GALILEO 29)",
        "meta_object_id": "2024-079A",
        "meta_epoch": "2025-12-25T18:42:53.226144",
        "meta_mean_motion": 1.70474814,
        "meta_eccentricity": 0.00021774,
        "meta_inclination": 55.0084,
        "meta_ra_of_asc_node": 105.9312,
        "meta_arg_of_pericenter": 191.4017,
        "meta_mean_anomaly": 169.7242,
        "meta_ephemeris_type": 0,
        "meta_classification_type": "U",
        "meta_norad_cat_id": 59598,
        "meta_element_set_no": 999,
        "meta_rev_at_epoch": 1036,
        "meta_bstar": 0,
        "meta_mean_motion_dot": 1.7e-07,
        "meta_mean_motion_ddot": 0,
        "tle_line1": "1 59598U 24079A   25359.77978271  .00000017  00000+0  00000+0 0  9996",
        "tle_line2": "2 59598  55.0084 105.9312 0002177 191.4017 169.7242  1.70474814 10368"
      },
      "geometry": {
        "type": "Point",
        "coordinates": [
          -92.62733605777821,
          24.420341027784712
        ]
      }
    }
  ]
}